{
    "links": {
        "self": "http://www.neowsapp.com/rest/v1/neo/3838264?api_key=iIulBulltgU6a56xZRHN4H3l9WmuAYTsLGpBGhQ2"
    },
    "id": "3838264",
    "neo_reference_id": "3838264",
    "name": "(2019 CH5)",
    "designation": "2019 CH5",
    "nasa_jpl_url": "http://ssd.jpl.nasa.gov/sbdb.cgi?sstr=3838264",
    "absolute_magnitude_h": 24.3,
    "estimated_diameter": {
        "kilometers": {
            "estimated_diameter_min": 0.0366906138,
            "estimated_diameter_max": 0.0820427065
        },
        "meters": {
            "estimated_diameter_min": 36.6906137531,
            "estimated_diameter_max": 82.0427064882
        },
        "miles": {
            "estimated_diameter_min": 0.0227984834,
            "estimated_diameter_max": 0.0509789586
        },
        "feet": {
            "estimated_diameter_min": 120.3760332259,
            "estimated_diameter_max": 269.1689931548
        }
    },
    "is_potentially_hazardous_asteroid": false,
    "close_approach_data": [
        {
            "close_approach_date": "2019-02-07",
            "close_approach_date_full": "2019-Feb-07 17:03",
            "epoch_date_close_approach": 1549558980000,
            "relative_velocity": {
                "kilometers_per_second": "15.487571131",
                "kilometers_per_hour": "55755.2560716428",
                "miles_per_hour": "34644.1478629605"
            },
            "miss_distance": {
                "astronomical": "0.0363090911",
                "lunar": "14.1242364379",
                "kilometers": "5431762.690195957",
                "miles": "3375140.8283279266"
            },
            "orbiting_body": "Earth"
        }
    ],
    "orbital_data": {
        "orbit_id": "2",
        "orbit_determination_date": "2019-02-15 07:00:31",
        "first_observation_date": "2019-02-11",
        "last_observation_date": "2019-02-14",
        "data_arc_in_days": 3,
        "observations_used": 56,
        "orbit_uncertainty": "8",
        "minimum_orbit_intersection": ".0337701",
        "jupiter_tisserand_invariant": "3.297",
        "epoch_osculation": "2458526.5",
        "eccentricity": ".6518472530626355",
        "semi_major_axis": "2.263142634309749",
        "inclination": "4.264037372456337",
        "ascending_node_longitude": "346.9005983072252",
        "orbital_period": "1243.558774278182",
        "perihelion_distance": ".7879193248460025",
        "perihelion_argument": "89.70788595381092",
        "aphelion_distance": "3.738365943773495",
        "perihelion_time": "2458482.314848534088",
        "mean_anomaly": "12.79123661602667",
        "mean_motion": ".2894917453410759",
        "equinox": "J2000",
        "orbit_class": {
            "orbit_class_type": "APO",
            "orbit_class_description": "Near-Earth asteroid orbits which cross the Earth’s orbit similar to that of 1862 Apollo",
            "orbit_class_range": "a (semi-major axis) > 1.0 AU; q (perihelion) < 1.017 AU"
        }
    },
    "is_sentry_object": false
}